QIANFAN-33              
1 61566U 24185Q   25362.95378386  .00000534  00000+0  37649-3 0  9994
2 61566  88.9794  77.0042 0005012 273.5536  86.5068 13.96565246 71424
QIANFAN-34              
1 61567U 24185R   25362.92405809  .00000619  00000+0  39520-3 0  9997
2 61567  88.9770  76.5496 0003198 282.4701  77.6121 14.02321377 71628
QIANFAN-35              
1 61568U 24185S   25362.88446905  .00001137  00000+0  45263-3 0  9992
2 61568  88.9795  74.9882 0005244 215.3458 144.7389 14.27997473 72485
QIANFAN-36              
1 61569U 24185T   25362.90660462  .00000230  00000+0  31373-3 0  9992
2 61569  88.9780  79.3644 0005738  14.9405 345.1918 13.55594042 70116
QIANFAN-37              
1 62238U 24232B   25362.91634355  .00000096  00000+0  12981-3 0  9996
2 62238  89.0005  39.6964 0002515  86.9599 273.1840 13.50980720101351
QIANFAN-38              
1 62239U 24232C   25362.79289190  .00000073  00000+0  93685-4 0  9992
2 62239  89.0012  39.6257 0015900 143.4370 216.7869 13.50978392101393
QIANFAN-39              
1 62240U 24232D   25362.92075892  .00000423  00000+0  17322-3 0  9993
2 62240  89.0003  35.4583 0017141  33.2113 327.0152 14.25402993103699
QIANFAN-40              
1 62241U 24232E   25362.89987415  .00000086  00000+0  11509-3 0  9999
2 62241  89.0039  39.2039 0014732 150.0588 210.1408 13.50978482101775
